CAS-2T & KS-1Q          
1 41847U 16066G   20354.14197349  .00000103  00000-0  25383-4 0  9994
2 41847  98.6296  46.2740 0366177  38.5527 324.1212 14.38127530215961
NAYIF-1 (EO-88)         
1 42017U 17008BX  20354.10853417  .00002431  00000-0  93804-4 0  9991
2 42017  97.3398  58.8254 0006990  41.2620 318.9146 15.27228484213726
ZHUHAI-1 02 (CAS-4B)    
1 42759U 17034B   20354.18358059  .00000352  00000-0  34693-4 0  9994
2 42759  43.0176  91.9811 0008586 112.7332 323.2048 15.10003992193897
ZHUHAI-1 01 (CAS-4A)    
1 42761U 17034D   20354.18446095  .00000368  00000-0  35569-4 0  9995
2 42761  43.0173  91.1547 0008955 115.1572 321.4418 15.10084225193897
MAX VALIER SAT          
1 42778U 17036P   20353.72770711  .00001327  00000-0  59125-4 0  9999
2 42778  97.2817  42.0506 0013759  93.8078 266.4733 15.23058650193774
RADFXSAT (FOX-1B)       
1 43017U 17073E   20353.74262304  .00000523  00000-0  45654-4 0  9992
2 43017  97.7170 258.8045 0256275 169.4251 191.2499 14.79215873166404
FOX-1D (AO-92)          
1 43137U 18004AC  20353.75079172  .00001612  00000-0  68200-4 0  9992
2 43137  97.4282  63.5131 0010357 122.6830 237.5408 15.24620554163125
DIWATA-2B               
1 43678U 18084H   20354.08097788 -.00000260  00000-0 -20072-4 0  9995
2 43678  97.9041 112.7132 0008635 290.7947  69.2362 14.91683352116544
ES'HAIL 2               
1 43700U 18090A   20353.75347258  .00000143  00000-0  00000-0 0  9994
2 43700   0.0180 353.1157 0001224 297.6776  94.0601  1.00270083  7551
FOX-1CLIFF (AO-95)      
1 43770U 18099N   20353.76389120  .00000309  00000-0  33313-4 0  9996
2 43770  97.6881  61.7522 0013275 305.1560  54.8417 14.95141773111456
ITASAT 1                
1 43786U 18099AE  20353.78698492  .00000096  00000-0  13894-4 0  9995
2 43786  97.6895  62.3263 0013870 297.2089  62.7718 14.95457382111486
JY1SAT (JO-97)          
1 43803U 18099AX  20353.77826428  .00000019  00000-0  68788-5 0  9994
2 43803  97.6858  62.0968 0013872 297.6111  62.3701 14.95666372111485
PSAT2 (NO-104)          
1 44354U 19036R   20353.83758356  .00015163  00000-0  21119-3 0  9990
2 44354  28.5270 246.3571 0346193 125.6116 237.7238 15.08212124 81638
BRICSAT2 (NO-103)       
1 44355U 19036S   20353.83191079  .00026831  00000-0  33763-3 0  9996
2 44355  28.5267 224.7080 0307264 160.7933 200.4531 15.18207877 81850
JAISAT-1                
1 44419U 19038F   20353.81607964  .00001324  00000-0  77964-4 0  9994
2 44419  97.5646 313.5467 0020292 211.6198 148.3815 15.13218222 80479
DUCHIFAT-3              
1 44854U 19089C   20354.25656554  .00000710  00000-0  63463-4 0  9998
2 44854  36.9656  86.0790 0006847 116.6730 243.4712 14.99257116 56044
RS-44 & BREEZE-KM R/B   
1 44909U 19096E   20353.79139802  .00000022  00000-0  39078-4 0  9998
2 44909  82.5219 232.8234 0217757 155.2754 205.8975 12.79707831 45760
ORBITAL FACTORY 2 (OF-2)
1 45113U 19071C   20353.81579401  .00002520  00000-0  85698-4 0  9999
2 45113  51.6407 192.4261 0012298   4.8948 355.2153 15.34390270 49426
HUSKYSAT-1              
1 45119U 19071J   20353.83677544  .00002856  00000-0  95218-4 0  9995
2 45119  51.6406 191.8158 0011589   1.5396 358.5620 15.34525528 49423
BY70-2                  
1 45857U 20042B   20354.07597740  .00001345  00000-0  20004-3 0  9992
2 45857  98.0008  65.6329 0012256  79.0230 281.2353 14.76554965 24927
SALSAT                  
1 46495U 20068K   20353.88807628  .00000690  00000-0  55315-4 0  9992
2 46495  97.6787 286.6489 0015992 328.2442  31.7818 15.03303693 12204
BY70-3                  
1 46839U 20079N   20354.16776716  .00002974  00000-0  97210-4 0  9998
2 46839  97.2620  65.5681 0008801 125.6423 318.2302 15.32471417  6582
